{"type":"Feature","properties":{"MUN":"SHIP BOTTOM BORO","COUNTY":"OCEAN","MUN_LABEL":"Ship Bottom Borough","MUN_TYPE":"Borough","NAME":"Ship Bottom Borough","GNIS_NAME":"Borough of Ship Bottom"},"geometry":{"type":"Polygon","coordinates":[[[-74.1801995,39.6564754],[-74.1796864,39.6562109],[-74.1774215,39.6551263],[-74.1773495,39.6550919],[-74.1741369,39.6535249],[-74.1736022,39.6532676],[-74.1730418,39.6529979],[-74.1715872,39.652293],[-74.1706266,39.6518275],[-74.170782,39.6516297],[-74.1710652,39.6512783],[-74.1711459,39.6512008],[-74.1712539,39.6510302],[-74.1713742,39.6507916],[-74.1715518,39.6505718],[-74.1718115,39.6502929],[-74.172108,39.6499157],[-74.173046,39.6488688],[-74.1731427,39.648749],[-74.1734037,39.6484259],[-74.173674,39.6480912],[-74.1747899,39.6466822],[-74.1749145,39.6465517],[-74.1750344,39.6464354],[-74.1752649,39.6461631],[-74.1757758,39.6455348],[-74.1761572,39.6450991],[-74.1763755,39.6448423],[-74.1765134,39.6446676],[-74.1766356,39.6444541],[-74.1767979,39.6441255],[-74.1770456,39.6437315],[-74.177341,39.6433985],[-74.1776314,39.6429994],[-74.1780361,39.6425021],[-74.1783264,39.6421252],[-74.17843,39.6419962],[-74.1787708,39.6413986],[-74.1790161,39.6410254],[-74.1794077,39.640513],[-74.1794987,39.6404798],[-74.1795453,39.640455],[-74.1796311,39.640376],[-74.1796876,39.6403186],[-74.1798076,39.6400389],[-74.1802156,39.6393858],[-74.1807464,39.6387443],[-74.1807591,39.6387183],[-74.1813871,39.6378735],[-74.1818212,39.6374997],[-74.1820378,39.6371951],[-74.1823571,39.6367412],[-74.1826836,39.6362433],[-74.1829022,39.6359481],[-74.1831753,39.6357303],[-74.1834351,39.6353969],[-74.183604,39.635107],[-74.1836426,39.6350469],[-74.1997571,39.6419347],[-74.1997478,39.6419396],[-74.1996545,39.6419883],[-74.1995603,39.6420359],[-74.1994654,39.6420823],[-74.1993697,39.6421276],[-74.1992953,39.6421615],[-74.1992187,39.6421949],[-74.1991395,39.6422279],[-74.1990576,39.6422605],[-74.1989728,39.642293],[-74.1988848,39.6423253],[-74.1987931,39.6423577],[-74.198697,39.6423904],[-74.1986143,39.6424177],[-74.1985275,39.6424456],[-74.1984355,39.6424744],[-74.1983368,39.6425046],[-74.1981533,39.6425595],[-74.1977129,39.642689],[-74.1975958,39.6427241],[-74.1974905,39.6427563],[-74.1972978,39.6428152],[-74.1970958,39.6428753],[-74.1968824,39.6429372],[-74.1966536,39.6430022],[-74.1964471,39.6430598],[-74.1962164,39.6431233],[-74.1954801,39.6433235],[-74.1952258,39.643393],[-74.1948531,39.6434962],[-74.1940598,39.6437179],[-74.193714,39.643814],[-74.1933481,39.6439142],[-74.1931803,39.6439596],[-74.1930195,39.6440025],[-74.1928355,39.644051],[-74.1926581,39.644097],[-74.1924862,39.6441408],[-74.1923188,39.6441826],[-74.1921553,39.6442227],[-74.1919953,39.644261],[-74.1918385,39.6442978],[-74.1916843,39.644333],[-74.1916161,39.644348],[-74.1915404,39.644364],[-74.1912468,39.6444231],[-74.1911224,39.6444492],[-74.191055,39.6444642],[-74.1909925,39.6444788],[-74.1909334,39.6444934],[-74.1908772,39.6445081],[-74.1908034,39.6445284],[-74.1907297,39.6445495],[-74.1906562,39.6445712],[-74.1905828,39.6445937],[-74.1905096,39.6446169],[-74.1904367,39.6446407],[-74.190364,39.6446652],[-74.1902917,39.6446904],[-74.1902034,39.6447221],[-74.1901218,39.6447521],[-74.1900451,39.6447812],[-74.1899725,39.6448097],[-74.189903,39.644838],[-74.1898364,39.6448662],[-74.1897726,39.6448943],[-74.1897112,39.6449224],[-74.1896553,39.6449492],[-74.1895979,39.644978],[-74.1895383,39.6450091],[-74.1894757,39.645043],[-74.1894138,39.6450775],[-74.1893455,39.6451164],[-74.1891391,39.6452366],[-74.1888498,39.6454039],[-74.1887177,39.6454815],[-74.18865,39.6455223],[-74.1885871,39.6455609],[-74.188528,39.6455981],[-74.1884721,39.6456342],[-74.1884141,39.6456727],[-74.1883589,39.6457106],[-74.1883064,39.645748],[-74.1882562,39.645785],[-74.1882081,39.6458219],[-74.1881621,39.6458587],[-74.1881182,39.6458954],[-74.1880761,39.6459322],[-74.1880334,39.6459712],[-74.1879901,39.6460121],[-74.1879463,39.6460552],[-74.1879014,39.6461008],[-74.1878555,39.6461488],[-74.1878077,39.6462003],[-74.1877569,39.6462563],[-74.1877006,39.6463196],[-74.1876301,39.6464007],[-74.1875636,39.6464797],[-74.1875009,39.646557],[-74.1874416,39.6466329],[-74.1873856,39.6467077],[-74.1873329,39.6467814],[-74.1873077,39.6468179],[-74.1872832,39.6468541],[-74.1872595,39.6468902],[-74.1872366,39.6469261],[-74.1872069,39.6469741],[-74.1871774,39.6470234],[-74.1871482,39.6470742],[-74.1871191,39.6471264],[-74.1870901,39.6471803],[-74.1870611,39.6472359],[-74.187032,39.6472935],[-74.1870027,39.6473533],[-74.186968,39.6474267],[-74.1869346,39.6475011],[-74.1869023,39.6475763],[-74.1868713,39.6476522],[-74.1868416,39.6477289],[-74.1868132,39.647806],[-74.1867862,39.6478837],[-74.1867607,39.6479616],[-74.1867468,39.6480069],[-74.1867339,39.6480527],[-74.1867219,39.6480991],[-74.1867108,39.6481461],[-74.1867006,39.6481937],[-74.1866914,39.648242],[-74.186683,39.648291],[-74.1866755,39.6483408],[-74.1866689,39.6483912],[-74.1866632,39.6484425],[-74.1866583,39.6484947],[-74.1866544,39.6485478],[-74.1866512,39.6486019],[-74.1866489,39.6486571],[-74.1866475,39.6487135],[-74.1866469,39.6487712],[-74.1866477,39.6488662],[-74.1866507,39.6489658],[-74.1866558,39.6490709],[-74.1866632,39.6491837],[-74.1866709,39.6492823],[-74.1866806,39.6493924],[-74.186716,39.6497572],[-74.1867285,39.6498923],[-74.1867393,39.6500251],[-74.1867472,39.6501448],[-74.1867506,39.6502078],[-74.1867531,39.6502685],[-74.186755,39.6503274],[-74.186756,39.6503846],[-74.1867564,39.6504405],[-74.186756,39.650495],[-74.1867549,39.6505484],[-74.186753,39.6506007],[-74.1867371,39.6510118],[-74.1867325,39.6511134],[-74.1867277,39.6512044],[-74.1867213,39.6513034],[-74.1867141,39.651396],[-74.1867059,39.6514839],[-74.1866967,39.651568],[-74.1866792,39.6517065],[-74.18667,39.651773],[-74.1866604,39.6518378],[-74.1866505,39.6519013],[-74.1866402,39.6519635],[-74.1866295,39.6520244],[-74.1866184,39.6520842],[-74.1865776,39.6522993],[-74.1865524,39.6524245],[-74.1865395,39.6524847],[-74.1865266,39.6525412],[-74.1865137,39.6525948],[-74.1865005,39.6526461],[-74.1864862,39.6526986],[-74.1864714,39.6527492],[-74.1864561,39.6527981],[-74.1864403,39.6528454],[-74.1864238,39.6528915],[-74.1864067,39.6529363],[-74.1863889,39.6529799],[-74.1863704,39.6530225],[-74.1863427,39.6530821],[-74.1863124,39.653143],[-74.1862793,39.6532057],[-74.1862434,39.6532702],[-74.1862046,39.6533368],[-74.1861624,39.6534063],[-74.1861162,39.6534797],[-74.1860648,39.6535588],[-74.1860234,39.6536212],[-74.1859845,39.6536788],[-74.1859471,39.6537331],[-74.1859108,39.6537846],[-74.1858751,39.653834],[-74.18584,39.6538814],[-74.1858052,39.6539271],[-74.1857707,39.6539711],[-74.185736,39.6540142],[-74.1857014,39.6540558],[-74.1856668,39.6540961],[-74.1856321,39.6541352],[-74.1855972,39.654173],[-74.1855623,39.6542098],[-74.1855271,39.6542454],[-74.1854917,39.65428],[-74.1854453,39.6543232],[-74.1853955,39.6543674],[-74.1853418,39.6544129],[-74.1852832,39.6544604],[-74.1852241,39.6545068],[-74.1851573,39.6545578],[-74.1850894,39.6546087],[-74.1849452,39.6547157],[-74.1848176,39.6548098],[-74.1847599,39.6548515],[-74.1847048,39.6548908],[-74.1846513,39.6549283],[-74.1845994,39.654964],[-74.1845487,39.6549982],[-74.1844991,39.6550311],[-74.1844454,39.6550658],[-74.1843903,39.6551005],[-74.1843338,39.6551353],[-74.1842758,39.6551703],[-74.1842162,39.6552054],[-74.1841549,39.6552408],[-74.1840918,39.6552765],[-74.1840267,39.6553125],[-74.1839603,39.6553486],[-74.1838916,39.6553853],[-74.1838202,39.6554228],[-74.1837458,39.6554613],[-74.1836683,39.6555008],[-74.1835863,39.655542],[-74.1834028,39.6556327],[-74.1832642,39.6556996],[-74.1831223,39.655766],[-74.1829773,39.655832],[-74.1828291,39.6558975],[-74.1827134,39.6559474],[-74.1825973,39.6559963],[-74.1824807,39.6560443],[-74.1823636,39.6560914],[-74.1822462,39.6561374],[-74.1821285,39.6561825],[-74.1820105,39.6562265],[-74.1818923,39.6562696],[-74.1818125,39.656298],[-74.1817325,39.656326],[-74.1816522,39.6563536],[-74.1815717,39.6563808],[-74.181491,39.6564075],[-74.18141,39.6564339],[-74.1813288,39.6564599],[-74.1812473,39.6564854],[-74.1811656,39.6565106],[-74.1810836,39.6565353],[-74.1810014,39.6565596],[-74.180919,39.6565836],[-74.1808363,39.6566071],[-74.1807534,39.6566302],[-74.1806703,39.6566529],[-74.1805869,39.6566751],[-74.1801995,39.6564754]]]}}
